[{"OBJECT_NAME":"ION SCV-018","OBJECT_ID":"2025-135AZ","EPOCH":"2026-03-09T20:46:52.870080","MEAN_MOTION":14.94433361,"ECCENTRICITY":0.00112281,"INCLINATION":97.7645,"RA_OF_ASC_NODE":184.9218,"ARG_OF_PERICENTER":262.207,"MEAN_ANOMALY":97.7875,"EPHEMERIS_TYPE":0,"CLASSIFICATION_TYPE":"U","NORAD_CAT_ID":64575,"ELEMENT_SET_NO":999,"REV_AT_EPOCH":3909,"BSTAR":0.00019355798,"MEAN_MOTION_DOT":2.03e-5,"MEAN_MOTION_DDOT":0},{"OBJECT_NAME":"COSMOS 252 DEB","OBJECT_ID":"1968-097P","EPOCH":"2026-03-09T22:17:10.598496","MEAN_MOTION":14.38094105,"ECCENTRICITY":0.0355903,"INCLINATION":62.2712,"RA_OF_ASC_NODE":340.7322,"ARG_OF_PERICENTER":288.5301,"MEAN_ANOMALY":67.7406,"EPHEMERIS_TYPE":0,"CLASSIFICATION_TYPE":"U","NORAD_CAT_ID":3561,"ELEMENT_SET_NO":999,"REV_AT_EPOCH":82694,"BSTAR":0.0010469467,"MEAN_MOTION_DOT":6.528e-5,"MEAN_MOTION_DDOT":0}]
